{
    "links": {
        "self": "http://www.neowsapp.com/rest/v1/neo/3841718?api_key=iIulBulltgU6a56xZRHN4H3l9WmuAYTsLGpBGhQ2"
    },
    "id": "3841718",
    "neo_reference_id": "3841718",
    "name": "(2019 JU1)",
    "designation": "2019 JU1",
    "nasa_jpl_url": "http://ssd.jpl.nasa.gov/sbdb.cgi?sstr=3841718",
    "absolute_magnitude_h": 24.6,
    "estimated_diameter": {
        "kilometers": {
            "estimated_diameter_min": 0.0319561887,
            "estimated_diameter_max": 0.0714562102
        },
        "meters": {
            "estimated_diameter_min": 31.9561886721,
            "estimated_diameter_max": 71.4562101727
        },
        "miles": {
            "estimated_diameter_min": 0.0198566489,
            "estimated_diameter_max": 0.0444008168
        },
        "feet": {
            "estimated_diameter_min": 104.8431420431,
            "estimated_diameter_max": 234.436392583
        }
    },
    "is_potentially_hazardous_asteroid": false,
    "close_approach_data": [
        {
            "close_approach_date": "2019-05-02",
            "close_approach_date_full": "2019-May-02 02:38",
            "epoch_date_close_approach": 1556764680000,
            "relative_velocity": {
                "kilometers_per_second": "8.0819839123",
                "kilometers_per_hour": "29095.1420843409",
                "miles_per_hour": "18078.5898134617"
            },
            "miss_distance": {
                "astronomical": "0.019117205",
                "lunar": "7.436592745",
                "kilometers": "2859893.14835335",
                "miles": "1777055.19924223"
            },
            "orbiting_body": "Earth"
        }
    ],
    "orbital_data": {
        "orbit_id": "2",
        "orbit_determination_date": "2019-05-06 07:17:00",
        "first_observation_date": "2019-05-02",
        "last_observation_date": "2019-05-06",
        "data_arc_in_days": 4,
        "observations_used": 19,
        "orbit_uncertainty": "8",
        "minimum_orbit_intersection": ".0191057",
        "jupiter_tisserand_invariant": "3.565",
        "epoch_osculation": "2458607.5",
        "eccentricity": ".5173354577206966",
        "semi_major_axis": "2.091696916225265",
        "inclination": "6.679333441512924",
        "ascending_node_longitude": "226.2666753644398",
        "orbital_period": "1104.960011179207",
        "perihelion_distance": "1.009587934656898",
        "perihelion_argument": "338.5709586713008",
        "aphelion_distance": "3.173805897793632",
        "perihelion_time": "2458591.905184548869",
        "mean_anomaly": "5.080847728069172",
        "mean_motion": ".3258036457046171",
        "equinox": "J2000",
        "orbit_class": {
            "orbit_class_type": "APO",
            "orbit_class_description": "Near-Earth asteroid orbits which cross the Earth’s orbit similar to that of 1862 Apollo",
            "orbit_class_range": "a (semi-major axis) > 1.0 AU; q (perihelion) < 1.017 AU"
        }
    },
    "is_sentry_object": false
}